0 FENGYUN 1C DEB
1 30325U 99025AAL 13281.20790630 -.00000060  00000-0 -88377-5 0   177
2 30325 099.0492 273.4570 0017300 135.0829 284.8347 14.07919710343976
0 FENGYUN 1C DEB
1 30325U 99025AAL 13283.26834615 -.00000117  00000-0 -42075-4 0   185
2 30325 099.0490 275.5221 0017352 129.6139 287.9037 14.07920564344262
0 FENGYUN 1C DEB
1 30325U 99025AAL 13285.83893758  .00000010  00000-0  32576-4 0   199
2 30325 099.0488 278.0984 0017381 122.8982 356.5149 14.07919326344627
0 FENGYUN 1C DEB
1 30325U 99025AAL 13288.47508130  .00000290  00000-0  19712-3 0   207
2 30325 099.0490 280.7400 0017397 116.0158 037.3571 14.07918174344993
0 FENGYUN 1C DEB
1 30325U 99025AAL 13291.46021174  .00000275  00000-0  18794-3 0   211
2 30325 099.0497 283.7312 0017426 108.1663 047.0225 14.07919998345418
0 FENGYUN 1C DEB
1 30325U 99025AAL 13293.79912157  .00000095  00000-0  82051-4 0   228
2 30325 099.0501 286.0750 0017479 101.9333 021.5106 14.07923015345745
